start=new Date('2022-08-17T00:00:00.000Z').valueOf();
sats=[{"ECCENTRICITY":"0.00019000","LAUNCH_DATE":"2022-07-07","BSTAR":"-0.00025564000000","REF_FRAME":"TEME","SEMIMAJOR_AXIS":"6727.782","MEAN_ANOMALY":"340.8337","EPOCH":"2022-08-16T22:00:00.999936","EPHEMERIS_TYPE":"0","COUNTRY_CODE":"US","OBJECT_ID":"2022-076AX","ELEMENT_SET_NO":"999","TIME_SYSTEM":"UTC","OBJECT_TYPE":"PAYLOAD","REV_AT_EPOCH":"130","CENTER_NAME":"EARTH","MEAN_MOTION_DDOT":"0.0000000000000","OBJECT_NAME":"STARLINK-4137","INCLINATION":"53.2167","RA_OF_ASC_NODE":"179.7732","MEAN_ELEMENT_THEORY":"SGP4","NORAD_CAT_ID":"53031","PERIOD":"91.531","ARG_OF_PERICENTER":"32.2864","CLASSIFICATION_TYPE":"U","TLE_LINE1":"1 53031U 22076AX  22228.91667824 -.00036407  00000-0 -25564-3 0  9995","RCS_SIZE":"MEDIUM","GP_ID":"210369785","TLE_LINE2":"2 53031  53.2167 179.7732 0001900  32.2864 340.8337 15.73239857  1301","SITE":"AFETR","APOAPSIS":"350.925","FILE":"3538178","PERIAPSIS":"348.368","DECAY_DATE":null,"MEAN_MOTION":"15.73239857","MEAN_MOTION_DOT":"-0.00036407"},{"SITE":"AFETR","APOAPSIS":"351.236","FILE":"3538178","TLE_LINE2":"2 53032  53.2177 179.7745 0002514  24.6416 345.4675 15.73275477  1301","MEAN_MOTION_DOT":"-0.00074236","MEAN_MOTION":"15.73275477","PERIAPSIS":"347.854","DECAY_DATE":null,"PERIOD":"91.529","CLASSIFICATION_TYPE":"U","ARG_OF_PERICENTER":"24.6416","NORAD_CAT_ID":"53032","MEAN_ELEMENT_THEORY":"SGP4","GP_ID":"210369921","RCS_SIZE":"LARGE","TLE_LINE1":"1 53032U 22076AY  22228.91667824 -.00074236  00000-0 -52737-3 0  9990","MEAN_MOTION_DDOT":"0.0000000000000","OBJECT_NAME":"STARLINK-4115","TIME_SYSTEM":"UTC","CENTER_NAME":"EARTH","REV_AT_EPOCH":"130","OBJECT_TYPE":"PAYLOAD","INCLINATION":"53.2177","RA_OF_ASC_NODE":"179.7745","BSTAR":"-0.00052737000000","ECCENTRICITY":"0.00025140","LAUNCH_DATE":"2022-07-07","COUNTRY_CODE":"US","OBJECT_ID":"2022-076AY","ELEMENT_SET_NO":"999","SEMIMAJOR_AXIS":"6727.680","EPOCH":"2022-08-16T22:00:00.999936","REF_FRAME":"TEME","MEAN_ANOMALY":"345.4675","EPHEMERIS_TYPE":"0"},{"CLASSIFICATION_TYPE":"U","ARG_OF_PERICENTER":"27.7787","PERIOD":"91.532","MEAN_ELEMENT_THEORY":"SGP4","NORAD_CAT_ID":"53033","GP_ID":"210370602","RCS_SIZE":"LARGE","TLE_LINE1":"1 53033U 22076AZ  22228.91667824  .00034460  00000-0  24865-3 0  9995","FILE":"3538178","APOAPSIS":"351.074","SITE":"AFETR","TLE_LINE2":"2 53033  53.2170 179.7756 0002065  27.7787 344.6103 15.73226431  1306","MEAN_MOTION_DOT":"0.00034460","MEAN_MOTION":"15.73226431","DECAY_DATE":null,"PERIAPSIS":"348.296","BSTAR":"0.00024865000000","LAUNCH_DATE":"2022-07-07","ECCENTRICITY":"0.00020650","COUNTRY_CODE":"US","ELEMENT_SET_NO":"999","OBJECT_ID":"2022-076AZ","EPHEMERIS_TYPE":"0","REF_FRAME":"TEME","SEMIMAJOR_AXIS":"6727.820","EPOCH":"2022-08-16T22:00:00.999936","MEAN_ANOMALY":"344.6103","OBJECT_NAME":"STARLINK-4167","MEAN_MOTION_DDOT":"0.0000000000000","REV_AT_EPOCH":"130","CENTER_NAME":"EARTH","OBJECT_TYPE":"PAYLOAD","TIME_SYSTEM":"UTC","RA_OF_ASC_NODE":"179.7756","INCLINATION":"53.2170"},{"OBJECT_ID":"2022-076BA","COUNTRY_CODE":"US","ELEMENT_SET_NO":"999","MEAN_ANOMALY":"352.3346","SEMIMAJOR_AXIS":"6727.747","EPOCH":"2022-08-16T22:00:00.999936","REF_FRAME":"TEME","EPHEMERIS_TYPE":"0","BSTAR":"-0.00025780000000","ECCENTRICITY":"0.00022460","LAUNCH_DATE":"2022-07-07","INCLINATION":"53.2170","RA_OF_ASC_NODE":"179.7764","MEAN_MOTION_DDOT":"0.0000000000000","OBJECT_NAME":"STARLINK-4151","TIME_SYSTEM":"UTC","CENTER_NAME":"EARTH","REV_AT_EPOCH":"130","OBJECT_TYPE":"PAYLOAD","GP_ID":"210370466","RCS_SIZE":"LARGE","TLE_LINE1":"1 53034U 22076BA  22228.91667824 -.00036729  00000-0 -25780-3 0  9995","PERIOD":"91.530","CLASSIFICATION_TYPE":"U","ARG_OF_PERICENTER":"19.5788","NORAD_CAT_ID":"53034","MEAN_ELEMENT_THEORY":"SGP4","MEAN_MOTION_DOT":"-0.00036729","MEAN_MOTION":"15.73251882","PERIAPSIS":"348.101","DECAY_DATE":null,"SITE":"AFETR","FILE":"3538178","APOAPSIS":"351.123","TLE_LINE2":"2 53034  53.2170 179.7764 0002246  19.5788 352.3346 15.73251882  1300"},{"MEAN_MOTION_DDOT":"0.0000000000000","OBJECT_NAME":"STARLINK-4157","TIME_SYSTEM":"UTC","OBJECT_TYPE":"PAYLOAD","REV_AT_EPOCH":"130","CENTER_NAME":"EARTH","INCLINATION":"53.2169","RA_OF_ASC_NODE":"179.7729","BSTAR":"0.00025882000000","ECCENTRICITY":"0.00021430","LAUNCH_DATE":"2022-07-07","COUNTRY_CODE":"US","OBJECT_ID":"2022-076BB","ELEMENT_SET_NO":"999","MEAN_ANOMALY":"352.7928","SEMIMAJOR_AXIS":"6727.822","REF_FRAME":"TEME","EPOCH":"2022-08-16T22:00:00.999936","EPHEMERIS_TYPE":"0","SITE":"AFETR","APOAPSIS":"351.129","FILE":"3538178","TLE_LINE2":"2 53035  53.2169 179.7729 0002143  20.7855 352.7928 15.73225746  1305","MEAN_MOTION":"15.73225746","MEAN_MOTION_DOT":"0.00035900","PERIAPSIS":"348.245","DECAY_DATE":null,"PERIOD":"91.532","ARG_OF_PERICENTER":"20.7855","CLASSIFICATION_TYPE":"U","NORAD_CAT_ID":"53035","MEAN_ELEMENT_THEORY":"SGP4","RCS_SIZE":"LARGE","GP_ID":"210370193","TLE_LINE1":"1 53035U 22076BB  22228.91667824  .00035900  00000-0  25882-3 0  9997"},{"MEAN_ELEMENT_THEORY":"SGP4","NORAD_CAT_ID":"53036","ARG_OF_PERICENTER":"34.9720","CLASSIFICATION_TYPE":"U","PERIOD":"91.530","TLE_LINE1":"1 53036U 22076BC  22228.91667824 -.00040125  00000-0 -28218-3 0  9991","RCS_SIZE":"MEDIUM","GP_ID":"210370330","TLE_LINE2":"2 53036  53.2182 179.7686 0001603  34.9720 339.3267 15.73252774  1309","APOAPSIS":"350.688","FILE":"3538178","SITE":"AFETR","DECAY_DATE":null,"PERIAPSIS":"348.531","MEAN_MOTION":"15.73252774","MEAN_MOTION_DOT":"-0.00040125","LAUNCH_DATE":"2022-07-07","ECCENTRICITY":"0.00016030","BSTAR":"-0.00028218000000","EPHEMERIS_TYPE":"0","SEMIMAJOR_AXIS":"6727.745","MEAN_ANOMALY":"339.3267","REF_FRAME":"TEME","EPOCH":"2022-08-16T22:00:00.999936","COUNTRY_CODE":"US","ELEMENT_SET_NO":"999","OBJECT_ID":"2022-076BC","OBJECT_TYPE":"PAYLOAD","CENTER_NAME":"EARTH","REV_AT_EPOCH":"130","TIME_SYSTEM":"UTC","OBJECT_NAME":"STARLINK-4155","MEAN_MOTION_DDOT":"0.0000000000000","RA_OF_ASC_NODE":"179.7686","INCLINATION":"53.2182"},{"MEAN_MOTION_DOT":"-0.00040607","MEAN_MOTION":"15.73258211","PERIAPSIS":"348.345","DECAY_DATE":null,"SITE":"AFETR","APOAPSIS":"350.844","FILE":"3538178","TLE_LINE2":"2 53037  53.2185 179.7693 0001857  27.4315 347.4726 15.73258211  1301","GP_ID":"210370739","RCS_SIZE":"LARGE","TLE_LINE1":"1 53037U 22076BD  22228.91667824 -.00040607  00000-0 -28556-3 0  9992","PERIOD":"91.530","CLASSIFICATION_TYPE":"U","ARG_OF_PERICENTER":"27.4315","NORAD_CAT_ID":"53037","MEAN_ELEMENT_THEORY":"SGP4","RA_OF_ASC_NODE":"179.7693","INCLINATION":"53.2185","MEAN_MOTION_DDOT":"0.0000000000000","OBJECT_NAME":"STARLINK-4153","TIME_SYSTEM":"UTC","REV_AT_EPOCH":"130","CENTER_NAME":"EARTH","OBJECT_TYPE":"PAYLOAD","ELEMENT_SET_NO":"999","COUNTRY_CODE":"US","OBJECT_ID":"2022-076BD","SEMIMAJOR_AXIS":"6727.729","REF_FRAME":"TEME","MEAN_ANOMALY":"347.4726","EPOCH":"2022-08-16T22:00:00.999936","EPHEMERIS_TYPE":"0","BSTAR":"-0.00028556000000","ECCENTRICITY":"0.00018570","LAUNCH_DATE":"2022-07-07"},{"MEAN_MOTION":"15.73287353","MEAN_MOTION_DOT":"-0.00079785","DECAY_DATE":null,"PERIAPSIS":"348.056","APOAPSIS":"350.966","FILE":"3538178","SITE":"AFETR","TLE_LINE2":"2 53038  53.2183 179.7661 0002163  28.2452 347.2048 15.73287353  1301","RCS_SIZE":"LARGE","GP_ID":"210370058","TLE_LINE1":"1 53038U 22076BE  22228.91667824 -.00079785  00000-0 -56724-3 0  9990","ARG_OF_PERICENTER":"28.2452","CLASSIFICATION_TYPE":"U","PERIOD":"91.528","MEAN_ELEMENT_THEORY":"SGP4","NORAD_CAT_ID":"53038","RA_OF_ASC_NODE":"179.7661","INCLINATION":"53.2183","OBJECT_NAME":"STARLINK-4156","MEAN_MOTION_DDOT":"0.0000000000000","OBJECT_TYPE":"PAYLOAD","CENTER_NAME":"EARTH","REV_AT_EPOCH":"130","TIME_SYSTEM":"UTC","OBJECT_ID":"2022-076BE","COUNTRY_CODE":"US","ELEMENT_SET_NO":"999","EPHEMERIS_TYPE":"0","MEAN_ANOMALY":"347.2048","SEMIMAJOR_AXIS":"6727.646","REF_FRAME":"TEME","EPOCH":"2022-08-16T22:00:00.999936","BSTAR":"-0.00056724000000","LAUNCH_DATE":"2022-07-07","ECCENTRICITY":"0.00021630"},{"TLE_LINE1":"1 53043U 22077A   22228.91667824 -.01223590  00000-0 -49196-1 0  9996","GP_ID":"210369786","RCS_SIZE":"LARGE","MEAN_ELEMENT_THEORY":"SGP4","NORAD_CAT_ID":"53043","PERIOD":"94.257","CLASSIFICATION_TYPE":"U","ARG_OF_PERICENTER":"79.8920","PERIAPSIS":"481.265","DECAY_DATE":null,"MEAN_MOTION_DOT":"-0.01223590","MEAN_MOTION":"15.27730445","TLE_LINE2":"2 53043  97.6554  49.1441 0001947  79.8920 119.5249 15.27730445  1305","SITE":"AFWTR","FILE":"3538178","APOAPSIS":"483.936","SEMIMAJOR_AXIS":"6860.736","REF_FRAME":"TEME","EPOCH":"2022-08-16T22:00:00.999936","MEAN_ANOMALY":"119.5249","EPHEMERIS_TYPE":"0","COUNTRY_CODE":"US","ELEMENT_SET_NO":"999","OBJECT_ID":"2022-077A","ECCENTRICITY":"0.00019470","LAUNCH_DATE":"2022-07-11","BSTAR":"-0.04919600000000","RA_OF_ASC_NODE":"49.1441","INCLINATION":"97.6554","TIME_SYSTEM":"UTC","CENTER_NAME":"EARTH","REV_AT_EPOCH":"130","OBJECT_TYPE":"PAYLOAD","MEAN_MOTION_DDOT":"0.0000000000000","OBJECT_NAME":"STARLINK-4362"},{"GP_ID":"210369922","RCS_SIZE":"LARGE","TLE_LINE1":"1 53044U 22077B   22228.91667824 -.01223764  00000-0 -46942-1 0  9996","CLASSIFICATION_TYPE":"U","ARG_OF_PERICENTER":"60.7204","PERIOD":"94.163","NORAD_CAT_ID":"53044","MEAN_ELEMENT_THEORY":"SGP4","MEAN_MOTION_DOT":"-0.01223764","MEAN_MOTION":"15.29263254","DECAY_DATE":null,"PERIAPSIS":"476.581","APOAPSIS":"479.450","FILE":"3538178","SITE":"AFWTR","TLE_LINE2":"2 53044  97.6554  49.1421 0002092  60.7204  92.0972 15.29263254  1309","ELEMENT_SET_NO":"999","COUNTRY_CODE":"US","OBJECT_ID":"2022-077B","EPHEMERIS_TYPE":"0","SEMIMAJOR_AXIS":"6856.150","REF_FRAME":"TEME","EPOCH":"2022-08-16T22:00:00.999936","MEAN_ANOMALY":"92.0972","BSTAR":"-0.04694200000000","LAUNCH_DATE":"2022-07-11","ECCENTRICITY":"0.00020920","INCLINATION":"97.6554","RA_OF_ASC_NODE":"49.1421","OBJECT_NAME":"STARLINK-4349","MEAN_MOTION_DDOT":"0.0000000000000","CENTER_NAME":"EARTH","REV_AT_EPOCH":"130","OBJECT_TYPE":"PAYLOAD","TIME_SYSTEM":"UTC"}];
